full_name,spec_B,diameter,epoch,a,e,i,om,w,ma,moid
"       (2010 AL)",,,2458600.5,1.74839085271181,.3972110215058512,9.440602008507758,110.4336637554919,34.17114224960486,355.1830531012907,.0965715
"       (2010 AR1)",,,2458600.5,1.525653085002154,.371472960417152,.5579287199145088,202.5717734672612,227.1178023945238,353.1532743707413,.00300945
"       (2010 AK2)",,,2458600.5,2.148715872418651,.7143264421926763,45.15258768188026,291.2521869643369,309.6109220861089,295.0249154677344,.261737
"       (2010 AL2)",,,2455205.5,1.757080223011938,.4315674221029504,7.525823628691963,106.1837906764155,20.65469004458161,353.3890206928615,.0285563
"       (2010 AM2)",,,2455205.5,1.468429573924662,.5178248194998136,1.284480512659216,45.50390856044093,323.6951056040144,39.33720337443161,.0151571
"       (2010 AN2)",,0.123,2458600.5,1.679305407288419,.4996314633525945,8.467276751575747,291.2235742513105,270.7791225048315,59.40007684276528,.0666246
"       (2010 AO2)",,,2458600.5,1.012206334214696,.337942954468367,19.58491223331495,289.9525441388129,323.5804377656557,291.5659865076377,.167033
"       (2010 AB3)",,,2455207.5,2.700348893477909,.6125640240621436,2.250525151197789,296.366458646975,143.1084090251083,5.424331634767812,.0660438
"       (2010 AC3)",,,2455205.5,1.721621664820973,.3567856652880629,23.93910110846981,281.3262527211924,137.224169633649,22.1581818251016,.1879
"       (2010 AD3)",,,2458600.5,2.952467187163614,.6328291708833855,4.48925348935856,277.7167165299741,209.7046117263794,296.2565222125775,.10693
"       (2010 AE3)",,,2455207.5,1.882151907120605,.5585725868896337,10.29749533721484,114.8181333140646,289.5931546969529,18.63446074334859,.0412117
"       (2010 AF3)",,,2458600.5,1.016582112044979,.1235885513362826,11.81507404480712,285.643571930533,289.9587905000089,293.2462711592721,.0494309
"       (2010 AG3)",,,2458600.5,1.372182977127998,.2811433766847655,2.45374155111392,109.3462426550769,31.67943495797109,268.8764958166825,.0154909
"       (2010 AH3)",,,2455207.5,1.66120755447987,.4247389759226798,2.000857162480873,100.7273890552826,325.6591323628522,17.54939699257365,.00526169
"       (2010 AJ3)",,,2458600.5,1.2255161801294,.3070641873491582,16.93298497876573,110.0178563160892,291.2861159005508,345.2446825561197,.0116611
"       (2010 AE30)",,0.050,2455209.5,1.267198333931491,.4163732327227535,5.992314748705643,279.6471643846958,278.2067304386861,318.2050240789449,.00760097
"       (2010 AF30)",,,2458600.5,1.324695768276134,.3716194524828897,3.058944699981754,62.43135572774963,162.8006757101111,318.5372042703646,.0433459
"       (2010 AG30)",,,2455207.5,2.259001687076899,.694443161752383,2.086941361812954,103.5811144879472,84.62372323444679,346.5198326774841,.00648545
"       (2010 AJ30)",,0.111,2458600.5,.8116560138081301,.302023468881905,7.593746166127985,303.4831637163431,350.7100270215733,67.23603272106543,.0460667
"       (2010 AL30)",,,2458600.5,1.046130738296026,.3076363047155384,3.830589125347502,112.3654297319578,97.74950766949408,181.610658402243,.00108145
"       (2010 AE40)",,,2455210.5,1.864945852677201,.4529897326474415,21.43274343850517,294.5835627390863,155.3111658568697,8.530950543580708,.062712
"       (2010 AF40)",,,2458600.5,1.237916717677104,.4644589776482833,4.304578381740847,119.2194786168673,93.20804612101394,217.4757418528438,.00210395
"       (2010 AG40)",,0.089,2458600.5,1.75512819082022,.6082911325098048,2.030419010170136,21.57932164630931,183.7844011542756,331.9440076142097,.0336626
"       (2010 AL60)",,,2458600.5,1.228903110717269,.1604898016308542,16.14950274023985,108.1803570293223,339.5955989879911,306.9643168370708,.0568848
"       (2010 AM60)",,,2458600.5,2.409906076791417,.569862493867455,11.20655189190697,113.9839699939012,335.7530050389806,178.3220109042848,.0737233
"       (2010 AN60)",,,2455212.5,2.001221759843681,.5737656203735638,4.554016985465377,297.5921654361387,123.3604388890925,13.63270384490267,.00812723
"       (2010 AO60)",,,2458600.5,.9508403600126576,.2478982916147539,11.06117504143792,310.0050794357875,37.32052564144107,105.5747086449531,.0812854
"       (2010 AN61)",,,2458600.5,1.156830127187442,.1323081870112091,3.612160360828777,116.4237274366351,8.682329199336447,153.1794871613536,.0209648
"       (2010 AB78)",,1.671,2458600.5,2.254395919277575,.54694188897795,33.25877868891425,316.8970835500976,296.5212294286474,237.0315745053645,.204997
"       (2010 AG79)",,0.892,2458600.5,2.899945257033158,.5809291616500594,33.00230825109878,50.16921699702691,13.84220016702213,320.2269945535586,.236326
"       (2010 BC)",,0.080,2458600.5,1.935703598241464,.5687982890613625,9.566358828809298,120.9820450875477,60.58714095007576,142.0655112614402,.0158566
"       (2010 BQ)",,,2458600.5,2.331014278763659,.5468634742667432,37.0454655212334,302.8178775894707,148.5232201568354,225.7243060808925,.124191
"       (2010 BG2)",,,2458600.5,3.40248338679787,.9071784414303797,42.87289823553774,128.1852929933094,238.8113723036186,179.353270631456,.0620313
"       (2010 BH2)",,0.363,2458600.5,2.349827476024806,.4632439229437556,24.62206592354826,108.2423910133515,45.70981951448817,190.2304649248586,.356223
"       (2010 BK2)",,0.118,2458600.5,.9038746142790236,.4477948115277211,6.045704765580473,278.0598141299417,72.63045850437351,.1470505545334906,.0327579
"       (2010 BU2)",,,2458600.5,2.400453568079548,.5860527997907036,3.16454106114199,123.7056418796087,13.22614658567306,172.4757119442889,.0128178
"       (2010 BB3)",,,2458600.5,1.532586890946992,.1838397677840771,10.89327934607389,141.7247589278307,347.303439631567,316.064549193334,.267513
"       (2010 BC3)",,,2458600.5,3.180670448123936,.6541591742114294,4.842832542047306,359.2100093723287,154.9949895544245,224.2330162823463,.115445
"       (2010 BT3)",,,2458600.5,2.577874116644317,.5489623095874472,13.58807573003606,308.5281095815413,150.0684304069129,92.17767262514553,.203981
"       (2010 BZ4)",,,2458600.5,2.764210643554446,.6290429272283135,10.05354649480701,98.82636241821898,51.296286895,.282624531220885,.112103
"       (2010 BG5)",,,2458600.5,1.471866974340982,.3866733957504666,6.601790064110095,318.7486549262092,216.7484382396521,42.49489629362901,.0152281
"       (2010 CA)",,,2458600.5,1.318459061598599,.4599133076183559,9.900659788546918,134.5404365852795,93.13774743857302,351.3817567528858,.000231017
"       (2010 CL)",,,2455236.5,1.569427629572673,.3892713061168302,18.25743223002486,315.9936735708427,136.237035203249,19.87077098280068,.045239
"       (2010 CM)",,1.168,2458600.5,2.626907225938645,.5314718789241301,7.432794562362418,124.9931805634405,94.47103196549234,24.65989102248972,.265218
"       (2010 CN)",,,2458600.5,1.390277323095504,.223928699858186,10.66636534622886,317.886583142162,212.4207860609638,203.6728411282433,.110789
"       (2010 CT)",,,2458600.5,.8878384161251821,.6577284524558171,19.75778461542519,176.0695317627209,104.3142117503332,290.1397660331677,.171421
"       (2010 CJ1)",,,2455239.5,1.563140753932105,.4943869616199306,4.084994706910114,138.1739333225369,281.7842539657819,30.79969230812209,.0143657
"       (2010 CK1)",,0.084,2455240.5,1.146585989693644,.2153961740834699,27.27671259558836,141.4573425449707,77.87373480769479,306.5665418083108,.0536338
"       (2010 CM1)",,,2455239.5,2.042123410346046,.5195608463607418,5.137227970643357,140.7127553710123,309.478157652503,15.56709455737284,.0481351
"       (2010 CR5)",,,2455241.5,3.007147175437987,.8177292479544871,5.611433659286996,323.3486333512013,49.43617163589651,24.11815710682409,.0636206
"       (2010 CH18)",,0.394,2458600.5,2.607839235960282,.5701565490233499,27.14568880919993,49.31193154467689,109.8678844069219,58.98543610416023,.332226
"       (2010 CJ18)",,,2458600.5,1.197598928077606,.2600085080897485,7.786271956801401,148.6885348782502,63.44806307329579,324.1827581099014,.0066335
"       (2010 CL18)",,,2458600.5,2.68206764309208,.5615770510278429,18.2590819828938,160.1473937014303,30.33259623403735,26.75129737980809,.215707
"       (2010 CB19)",,,2458600.5,1.026234253368724,.3102982311952134,6.002396845841759,320.4649876679564,76.67030542109882,15.44544753678499,.00400397
"       (2010 CC19)",,0.104,2455243.5,1.099100632122349,.7510776524464398,46.11959470816301,144.1777010963833,138.4070977611612,315.7716079218182,.0543604
"       (2010 CE19)",,,2455244.5,1.937456421712972,.4829665329254967,7.592659574563877,143.1261270596665,326.5799909181644,11.88556769807282,.0478279
"       (2010 CH19)",,,2455242.5,1.700443411405744,.5005510845687573,10.03822295005671,325.1211119840525,80.74281991873794,41.7499183223959,.0612855
"       (2010 CK19)",,,2458600.5,.9868151572643704,.1500663174624766,2.256126887933791,328.5409553132739,278.8949505860515,51.58444708909879,.00012451
"       (2010 CM19)",,,2455247.5,1.448869036105203,.3156423103405619,4.312958540922106,145.885655677625,353.0511750551548,7.264491588527402,.00547985
"       (2010 CN19)",,,2455242.5,1.016901607666993,.283175754761293,15.74333877482823,145.1315886601863,254.7618183546268,73.16578473227509,.015788
"       (2010 CO19)",,,2455243.5,1.387780759520505,.258348085432487,9.770768383586681,323.8340454289975,208.1055778511108,345.0701948925135,.0585148
"       (2010 CP19)",,,2455244.5,1.186879317912166,.1478020722399656,13.97182095705054,145.3244136113808,27.24551730915437,342.0822552418311,.0370679
"       (2010 CQ19)",,,2455244.5,2.772975419953575,.6417293614722082,.1567256841012244,211.4677172323312,271.6946133332467,4.269384599152039,.00936485
"       (2010 CR19)",,,2455242.5,1.360647304210526,.2565487151301382,25.07863905365707,324.9467125601279,219.7609499668392,336.9114160069389,.0701175
"       (2010 CS19)",,,2458600.5,1.73956035005948,.4403460516616978,4.177856772631449,143.6328702461986,340.419711280781,10.37114317039259,.00261539
"       (2010 CN44)",,0.340,2458600.5,2.8500309609801,.6760845039826714,3.845364392865911,189.7024413979797,302.8967032625178,326.2268665217072,.0251522
